satname,norad_id,inclination_deg,eccentricity,mean_motion_rev_per_day,perigee_km,apogee_km,l1,l2
STARLINK-1184,45098,53.0551,0.0001662,15.08019875,541.1011504696762,543.4014875469147,1 45098U 20006BG  26019.52964143  .00014295  00000+0  93489-3 0  9992,2 45098  53.0551 107.0832 0001662   4.0623 356.0380 15.08019875329618
STARLINK-1193,45100,53.0539,0.0001305,15.3567698,458.01818215708136,459.80265153287746,1 45100U 20006BJ  26019.66668981  .01705844  00000+0  43808-1 0  9998,2 45100  53.0539 104.9257 0001305  90.6693  25.6756 15.35676980  5643
STARLINK-1143,45179,53.0496,0.0004387,15.52298115,407.040101880727,412.99602913520357,1 45179U 20012B   26018.82582425  .00027451  00000+0  44957-3 0  9994,2 45179  53.0496 211.7880 0004387 150.1492 209.9768 15.52298115328155
STARLINK-1202,45183,53.0941,0.0001458,15.16589319,515.1525495448541,517.1629258903722,1 45183U 20012F   26019.66668981  .00104878  00000+0  52449-2 0  9997,2 45183  53.0941 266.5301 0001458  73.0299 324.3046 15.16589319  5742
STARLINK-1216,45185,53.0938,0.0001811,15.16511768,515.1441755203687,517.6413742048244,1 45185U 20012H   26019.66668981  .00101503  00000+0  50902-2 0  9993,2 45185  53.0938 266.5130 0001811  62.3331  23.6565 15.16511768  5749
STARLINK-1225,45187,53.0699,0.0001972,15.11103148,531.4716423197124,534.197329473749,1 45187U 20012K   26019.66668981  .00103341  00000+0  60296-2 0  9994,2 45187  53.0699 266.6635 0001972 129.6905 132.9265 15.11103148  5798
STARLINK-1230,45189,53.0682,0.0001898,15.10853016,532.2853899377878,534.90908425419,1 45189U 20012M   26019.66668981  .00059294  00000+0  35126-2 0  9997,2 45189  53.0682 266.6662 0001898 110.1819 132.3336 15.10853016  5640
STARLINK-1234,45190,53.0465,0.0013331,15.51334952,403.7744062398624,421.8804756322861,1 45190U 20012N   26019.66668981  .00112712  00000+0  18605-2 0  9997,2 45190  53.0465 202.8905 0013331 141.7595 246.1692 15.51334952  5916
STARLINK-1269,45197,53.0787,0.0002386,15.12976727,525.4802917122734,528.7754841167862,1 45197U 20012V   26019.66668981  .00060719  00000+0  33900-2 0  9998,2 45197  53.0787 266.6150 0002386  98.6311 110.4142 15.12976727  5691
STARLINK-1154,45198,53.0509,0.000135,15.38078221,450.87054445145077,452.7146254393865,1 45198U 20012W   26019.04203311  .00070854  00000+0  18558-2 0  9996,2 45198  53.0509 245.4185 0001350 113.3227 246.7918 15.38078221327633
STARLINK-1199,45201,53.0539,0.0001388,15.06394829,546.2661657742501,548.1886469334531,1 45201U 20012Z   26019.63772554  .00000042  00000+0  21729-4 0  9994,2 45201  53.0539 246.8214 0001388  90.0067 270.1081 15.06394829327725
STARLINK-1209,45206,53.0494,0.0015026,15.42582991,428.2465835681378,448.7319087631149,1 45206U 20012AE  26019.23621209  .00020415  00000+0  46897-3 0  9993,2 45206  53.0494 209.5000 0015026 133.4344 226.7914 15.42582991327263
STARLINK-1210,45207,53.0195,0.0006422,15.82113112,320.16145757020695,328.77028069532025,1 45207U 20012AF  26019.66668981  .00210731  00000+0  98588-3 0  9995,2 45207  53.0195 150.9214 0006422 308.0918 322.4875 15.82113112  5997
STARLINK-1231,45212,53.0471,0.0002376,15.17287588,512.4047838587176,515.6799474932868,1 45212U 20012AL  26019.59773963  .00017418  00000+0  87715-3 0  9997,2 45212  53.0471 240.5450 0002376 126.8605 233.2607 15.17287588327762
STARLINK-1271,45217,53.0547,0.0001466,15.06400042,546.1961731346073,548.2266852940529,1 45217U 20012AR  26019.02585698 -.00000464  00000+0 -12277-4 0  9993,2 45217  53.0547 249.5683 0001466  89.7779 270.3378 15.06400042327639
STARLINK-1191,45222,53.1028,7.79e-05,15.181026,511.0386689610532,512.1120861494765,1 45222U 20012AW  26019.66668981  .01459938  00000+0  64639-1 0  9995,2 45222  53.1028 226.4383 0000779 121.7525 205.0728 15.18102600  5744
STARLINK-1212,45223,53.0532,0.0002382,15.40180161,443.9517260722614,447.20254348606977,1 45223U 20012AX  26019.62402766  .00067891  00000+0  16611-2 0  9999,2 45223  53.0532 223.7443 0002382 110.3505 249.7755 15.40180161328055
STARLINK-1215,45225,53.1445,0.0001428,15.26796662,484.4155821491677,486.3758070867507,1 45225U 20012AZ  26019.66668981  .00891970  00000+0  31033-1 0  9995,2 45225  53.1445 225.9179 0001428 102.2900 292.2907 15.26796662  5697
STARLINK-1221,45227,53.0674,0.0003382,15.39796511,444.4023718534909,449.0186987263605,1 45227U 20012BB  26019.61940338  .00017385  00000+0  44100-3 0  9992,2 45227  53.0674 141.7974 0003382 193.2735 166.8180 15.39796511329142
STARLINK-1222,45228,53.0552,0.0001691,15.45611451,428.43085142916607,430.73322200738403,1 45228U 20012BC  26019.66668981  .00006311  00000+0  13768-3 0  9992,2 45228  53.0552 217.1732 0001691 114.5832 225.9228 15.45611451  5881
STARLINK-1226,45229,53.1123,0.0002489,15.20288043,503.2578605639783,506.68427175931356,1 45229U 20012BD  26019.66668981  .01447426  00000+0  60238-1 0  9992,2 45229  53.1123 226.3368 0002489  97.6051  84.4673 15.20288043  5730
STARLINK-1227,45230,53.0997,0.0002211,15.1781549,510.9206813936462,513.9676963953752,1 45230U 20012BE  26019.66668981  .00019161  00000+0  94878-3 0  9993,2 45230  53.0997 226.3867 0002211  86.9146  88.0827 15.17815490  5800
STARLINK-1246,45235,53.0994,0.0002129,15.17252499,512.6812597680446,515.6159949881812,1 45235U 20012BK  26019.66668981  .00064847  00000+0  32057-2 0  9999,2 45235  53.0994 266.3343 0002129  84.6031  39.9986 15.17252499  5794
STARLINK-1270,45237,53.0519,0.0003802,15.39387906,445.3229107824136,450.51344313897516,1 45237U 20012BM  26019.54932087  .00076529  00000+0  19181-2 0  9992,2 45237  53.0519 220.8690 0003802 137.6286 222.5012 15.39387906328085
STARLINK-1279,45360,53.0493,0.0006825,15.47414528,419.6500279767115,428.93534449842537,1 45360U 20019A   26019.66668981  .00123980  00000+0  23507-2 0  9999,2 45360  53.0493 334.7817 0006825  50.4644 105.9776 15.47414528  5743
STARLINK-1301,45361,53.0489,0.0009384,15.52923883,401.8260744595609,414.5626611706757,1 45361U 20019B   26019.66668981  .00145748  00000+0  22650-2 0  9994,2 45361  53.0489 342.5034 0009384  38.8351 246.4164 15.52923883  5911
STARLINK-1262,45366,53.0546,0.0001213,15.06447794,546.2250530723431,547.9051070969708,1 45366U 20019G   26019.39626769  .00009934  00000+0  68400-3 0  9997,2 45366  53.0546  27.9031 0001213 129.6101 230.4995 15.06447794322307
STARLINK-1273,45367,53.0564,0.0001709,15.16624554,514.8727393866875,517.2291728300861,1 45367U 20019H   26019.66668981  .00448918  00000+0  21325-1 0  9992,2 45367  53.0564  26.0323 0001709  85.7239 161.9544 15.16624554  5797
STARLINK-1276,45368,53.0548,0.0001348,15.06403148,546.2683741034334,548.1354454735138,1 45368U 20019J   26019.32257201 -.00000152  00000+0  87221-5 0  9991,2 45368  53.0548  28.2359 0001348  86.2428 273.8715 15.06403148322291
STARLINK-1277,45369,53.0594,0.0001216,15.3368661,463.9923033715195,465.6565115858184,1 45369U 20019K   26019.66668981  .01090328  00000+0  30175-1 0  9996,2 45369  53.0594  25.8543 0001216  93.4977  45.3742 15.33686610  5796
STARLINK-1281,45370,53.0545,0.0001408,15.06399674,546.237467863868,548.1876462991422,1 45370U 20019L   26019.24516762  .00000540  00000+0  55124-4 0  9991,2 45370  53.0545  28.5847 0001408  84.5295 275.5854 15.06399674322286
STARLINK-1300,45374,53.0547,0.0001539,15.06399351,546.1477355813304,548.2793584797055,1 45374U 20019Q   26019.39998108  .00001331  00000+0  10827-3 0  9998,2 45374  53.0547  27.8879 0001539  92.0003 268.1163 15.06399351322301
STARLINK-1302,45375,53.0558,0.0001497,15.31100349,471.502562461701,473.55365159474513,1 45375U 20019R   26019.39713442  .00009542  00000+0  32477-3 0  9992,2 45375  53.0558  26.3174 0001497  90.3938 269.7234 15.31100349322320
STARLINK-1304,45376,53.0547,0.0002421,15.40388919,443.3087358248695,446.61247968654425,1 45376U 20019S   26019.32470203  .00106566  00000+0  25709-2 0  9994,2 45376  53.0547  24.2651 0002421  59.7934 300.3309 15.40388919322347
STARLINK-1305,45377,53.0514,0.0005735,15.44068471,430.20973430452614,438.02338913982203,1 45377U 20019T   26019.26094130  .00039388  00000+0  85303-3 0  9993,2 45377  53.0514   8.8060 0005735   2.9131 357.1907 15.44068471322564
STARLINK-1319,45379,53.0521,0.0005483,15.48646137,416.9578510742467,424.41343998733464,1 45379U 20019V   26019.66668981  .00067524  00000+0  12395-2 0  9993,2 45379  53.0521   6.7159 0005483  14.2047 190.0629 15.48646137  5908
STARLINK-1266,45383,53.0589,0.0001202,15.3276208,466.7529636261788,468.3986729876997,1 45383U 20019Z   26019.66668981  .01051987  00000+0  30067-1 0  9990,2 45383  53.0589   5.3110 0001202  92.7727 335.2086 15.32762080  5796
STARLINK-1267,45384,53.0558,0.0006606,15.40840123,439.1220799386829,448.1349965678237,1 45384U 20019AA  26019.66668981  .00080716  00000+0  19262-2 0  9997,2 45384  53.0558   0.5669 0006606  58.6594 333.2081 15.40840123  5781
STARLINK-1272,45386,53.0504,0.0006025,15.4635881,423.2880727531274,431.4887308623056,1 45386U 20019AC  26019.66668981  .00129125  00000+0  25375-2 0  9999,2 45386  53.0504 345.4896 0006025  22.3275 125.6383 15.46358810  5798
STARLINK-1274,45387,53.0324,0.0009333,15.4028567,438.8972350526128,451.6337981901379,1 45387U 20019AD  26019.58092005  .00093379  00000+0  22627-2 0  9997,2 45387  53.0324 336.4429 0009333  69.9823 290.2184 15.40285670323037
STARLINK-1280,45388,53.0491,0.0005934,15.54386971,399.9107330005145,407.95969630486434,1 45388U 20019AE  26019.66668981  .00114680  00000+0  16998-2 0  9992,2 45388  53.0491   1.3726 0005934  18.7043  91.0304 15.54386971  5613
STARLINK-1283,45389,53.0515,0.0011169,15.46133026,420.4491014029918,435.65276400706716,1 45389U 20019AF  26019.66668981  .00122748  00000+0  24297-2 0  9998,2 45389  53.0515 345.6214 0011169  64.4174 190.0636 15.46133026  5842
STARLINK-1284,45390,53.0614,0.0001266,15.35197369,459.46856686834235,461.2000678058912,1 45390U 20019AG  26019.66668981  .01035698  00000+0  27454-1 0  9995,2 45390  53.0614   5.1283 0001266  89.1197  52.9270 15.35197369  5796
